[{"OBJECT_NAME":"STARLINK-11123 [DTC]","OBJECT_ID":"2024-107D","EPOCH":"2026-03-09T18:08:21.721344","MEAN_MOTION":15.69658416,"ECCENTRICITY":7.079e-5,"INCLINATION":53.1596,"RA_OF_ASC_NODE":251.1333,"ARG_OF_PERICENTER":92.7857,"MEAN_ANOMALY":267.3242,"EPHEMERIS_TYPE":0,"CLASSIFICATION_TYPE":"U","NORAD_CAT_ID":59948,"ELEMENT_SET_NO":999,"REV_AT_EPOCH":10221,"BSTAR":-2.2797912e-5,"MEAN_MOTION_DOT":-3.342e-5,"MEAN_MOTION_DDOT":0},{"OBJECT_NAME":"TUSUR GO (RS78S)","OBJECT_ID":"2024-199AZ","EPOCH":"2026-03-09T22:48:41.341536","MEAN_MOTION":15.7089308,"ECCENTRICITY":0.00036127,"INCLINATION":97.3018,"RA_OF_ASC_NODE":306.7757,"ARG_OF_PERICENTER":269.724,"MEAN_ANOMALY":90.3609,"EPHEMERIS_TYPE":0,"CLASSIFICATION_TYPE":"U","NORAD_CAT_ID":61782,"ELEMENT_SET_NO":999,"REV_AT_EPOCH":11926,"BSTAR":0.0013446465,"MEAN_MOTION_DOT":0.00170473,"MEAN_MOTION_DDOT":0}]
